NORAD_CAT_ID,OBJECT_NAME,OBJECT_TYPE,EPOCH,MEAN_MOTION,ECCENTRICITY,INCLINATION,RA_OF_ASC_NODE,ARG_OF_PERICENTER,MEAN_ANOMALY,BSTAR,MEAN_MOTION_DOT,MEAN_MOTION_DDOT,TLE_LINE0,TLE_LINE1,TLE_LINE2,SEMIMAJOR_AXIS,PERIOD,APOGEE,PERIGEE,DECAYED
51742.0,STARLINK-3521,PAYLOAD,2024-01-27 19:34:16,15.08845486,0.0001345,53.2171,184.3886,76.3186,283.7956,0.00015627,2.2e-05,0.0,0 STARLINK-3521,1 51742U 22016AE  24027.81546953  .00002200  00000-0  15627-3 0  9994,2 51742  53.2171 184.3886 0001345  76.3186 283.7956 15.08845486108167,6917.864,95.437,540.659,538.798,0.0
51742.0,STARLINK-3521,PAYLOAD,2024-01-28 09:52:45,15.08837721,0.0001375,53.2171,181.7155,87.0441,273.0708,-1.8326e-06,-3.17e-06,0.0,0 STARLINK-3521,1 51742U 22016AE  24028.41164006 -.00000317  00000-0 -18326-5 0  9996,2 51742  53.2171 181.7155 0001375  87.0441 273.0708 15.08837721108253,6917.887,95.438,540.704,538.801,0.0
51742.0,STARLINK-3521,PAYLOAD,2024-01-28 14:38:55,15.08838458,0.0001452,53.217,180.824,84.8613,275.2545,5.3801e-06,-2.02e-06,0.0,0 STARLINK-3521,1 51742U 22016AE  24028.61035970 -.00000202  00000-0  53801-5 0  9994,2 51742  53.2170 180.8240 0001452  84.8613 275.2545 15.08838458107158,6917.885,95.438,540.755,538.746,0.0
51742.0,STARLINK-3521,PAYLOAD,2024-01-28 19:25:04,15.08840988,0.0001361,53.217,179.9315,77.529,282.5854,3.4525e-05,2.62e-06,0.0,0 STARLINK-3521,1 51742U 22016AE  24028.80907777  .00000262  00000-0  34525-4 0  9994,2 51742  53.2170 179.9315 0001361  77.5290 282.5854 15.08840988107187,6917.877,95.437,540.684,538.801,0.0
51742.0,STARLINK-3521,PAYLOAD,2024-01-29 09:43:32,15.08846871,0.0001235,53.2171,177.2558,81.8084,278.3048,3.2245e-05,2.25e-06,0.0,0 STARLINK-3521,1 51742U 22016AE  24029.40523398  .00000225  00000-0  32245-4 0  9990,2 51742  53.2171 177.2558 0001235  81.8084 278.3048 15.08846871108408,6917.859,95.437,540.579,538.87,0.0
51742.0,STARLINK-3521,PAYLOAD,2024-01-30 14:20:28,15.08842226,0.0001192,53.2171,171.9021,76.3883,283.7242,6.3514e-05,7.23e-06,0.0,0 STARLINK-3521,1 51742U 22016AE  24030.59755478  .00000723  00000-0  63514-4 0  9994,2 51742  53.2171 171.9021 0001192  76.3883 283.7242 15.08842226107452,6917.874,95.437,540.563,538.914,0.0
51742.0,STARLINK-3521,PAYLOAD,2024-01-30 15:55:51,15.08842197,0.0001191,53.2171,171.6048,76.4854,283.6271,6.1774e-05,6.95e-06,0.0,0 STARLINK-3521,1 51742U 22016AE  24030.66379471  .00000695  00000-0  61774-4 0  9991,2 51742  53.2171 171.6048 0001191  76.4854 283.6271 15.08842197108590,6917.874,95.437,540.563,538.915,0.0
51742.0,STARLINK-3521,PAYLOAD,2024-01-31 12:35:53,15.08834727,0.0001353,53.2176,167.7399,97.2594,262.8552,-1.8227e-05,-5.78e-06,0.0,0 STARLINK-3521,1 51742U 22016AE  24031.52492227 -.00000578  00000-0 -18227-4 0  9999,2 51742  53.2176 167.7399 0001353  97.2594 262.8552 15.08834727108728,6917.897,95.438,540.697,538.826,0.0
51742.0,STARLINK-3521,PAYLOAD,2024-01-31 18:57:25,15.08836833,0.0001371,53.2171,166.5491,99.6274,260.4874,-2.6882e-06,-3.31e-06,0.0,0 STARLINK-3521,1 51742U 22016AE  24031.78988079 -.00000331  00000-0 -26882-5 0  9996,2 51742  53.2171 166.5491 0001371  99.6274 260.4874 15.08836833107634,6917.89,95.438,540.704,538.807,0.0
51742.0,STARLINK-3521,PAYLOAD,2024-02-01 12:26:40,15.08836459,0.000141,53.2173,163.2785,101.9026,258.2125,6.5735e-05,7.58e-06,0.0,0 STARLINK-3521,1 51742U 22016AE  24032.51852059  .00000758  00000-0  65735-4 0  9996,2 51742  53.2173 163.2785 0001410 101.9026 258.2125 15.08836459107742,6917.891,95.438,540.732,538.781,0.0
51742.0,STARLINK-3521,PAYLOAD,2024-02-02 12:17:27,15.08837753,0.0001439,53.2168,158.8175,107.5843,252.5306,9.1685e-05,1.171e-05,0.0,0 STARLINK-3521,1 51742U 22016AE  24033.51212099  .00001171  00000-0  91685-4 0  9994,2 51742  53.2168 158.8175 0001439 107.5843 252.5306 15.08837753109028,6917.887,95.438,540.748,538.757,0.0
51742.0,STARLINK-3521,PAYLOAD,2024-02-02 13:52:50,15.08838817,0.0001427,53.2171,158.5202,105.7747,254.3403,9.8793e-05,1.285e-05,0.0,0 STARLINK-3521,1 51742U 22016AE  24033.57836045  .00001285  00000-0  98793-4 0  9996,2 51742  53.2171 158.5202 0001427 105.7747 254.3403 15.08838817107905,6917.884,95.438,540.736,538.762,0.0
51742.0,STARLINK-3521,PAYLOAD,2024-02-03 13:43:37,15.08837889,0.000143,53.2175,154.0617,105.0806,255.0344,1.5687e-05,-3.8e-07,0.0,0 STARLINK-3521,1 51742U 22016AE  24034.57196620 -.00000038  00000-0  15687-4 0  9992,2 51742  53.2175 154.0617 0001430 105.0806 255.0344 15.08837889108050,6917.887,95.438,540.741,538.763,0.0
51742.0,STARLINK-3521,PAYLOAD,2024-02-03 16:54:24,15.08838955,0.0001325,53.2171,153.4662,86.9639,273.1505,2.5293e-05,1.15e-06,0.0,0 STARLINK-3521,1 51742U 22016AE  24034.70444596  .00000115  00000-0  25293-4 0  9994,2 51742  53.2171 153.4662 0001325  86.9639 273.1505 15.08838955109206,6917.884,95.438,540.665,538.832,0.0
51742.0,STARLINK-3521,PAYLOAD,2024-02-04 13:34:24,15.08841372,0.0001366,53.2164,149.5979,75.8632,284.2512,8.8964e-05,1.128e-05,0.0,0 STARLINK-3521,1 51742U 22016AE  24035.56556317  .00001128  00000-0  88964-4 0  9993,2 51742  53.2164 149.5979 0001366  75.8632 284.2512 15.08841372108207,6917.876,95.437,540.686,538.796,0.0
51742.0,STARLINK-3521,PAYLOAD,2024-02-04 15:09:47,15.08849442,0.0001623,53.2179,149.3042,91.0656,269.0522,1.5231e-05,-4.6e-07,0.0,0 STARLINK-3521,1 51742U 22016AE  24035.63180122 -.00000046  00000-0  15231-4 0  9994,2 51742  53.2179 149.3042 0001623  91.0656 269.0522 15.08849442109348,6917.852,95.437,540.839,538.594,0.0
51742.0,STARLINK-3521,PAYLOAD,2024-02-05 11:49:48,15.08840596,0.0001348,53.2188,145.4326,75.4763,284.6379,5.3223e-05,5.59e-06,0.0,0 STARLINK-3521,1 51742U 22016AE  24036.49292454  .00000559  00000-0  53223-4 0  9992,2 51742  53.2188 145.4326 0001348  75.4763 284.6379 15.08840596109477,6917.879,95.438,540.676,538.811,0.0
51742.0,STARLINK-3521,PAYLOAD,2024-02-05 13:25:11,15.08832683,0.0001921,53.2192,145.1348,55.5893,304.5281,0.00020348,2.951e-05,0.0,0 STARLINK-3521,1 51742U 22016AE  24036.55916608  .00002951  00000-0  20348-3 0  9992,2 51742  53.2192 145.1348 0001921  55.5893 304.5281 15.08832683108351,6917.903,95.438,541.097,538.439,0.0
51742.0,STARLINK-3521,PAYLOAD,2024-02-06 13:15:58,15.08851133,0.000147,53.2176,140.6824,92.7083,267.4077,-1.6942e-05,-5.58e-06,0.0,0 STARLINK-3521,1 51742U 22016AE  24037.55275938 -.00000558  00000-0 -16942-4 0  9996,2 51742  53.2176 140.6824 0001470  92.7083 267.4077 15.08851133108503,6917.846,95.437,540.728,538.694,0.0
51742.0,STARLINK-3521,PAYLOAD,2024-02-07 13:06:46,15.08824989,0.0001515,53.2174,136.2216,99.6677,260.4487,-8.9389e-05,-1.71e-05,0.0,0 STARLINK-3521,1 51742U 22016AE  24038.54637630 -.00001710  00000-0 -89389-4 0  9993,2 51742  53.2174 136.2216 0001515  99.6677 260.4487 15.08824989109780,6917.926,95.439,540.839,538.743,0.0
51742.0,STARLINK-3521,PAYLOAD,2024-02-07 19:28:19,15.0883074,0.0001471,53.2172,135.0325,96.6866,263.4294,-4.1793e-05,-9.53e-06,0.0,0 STARLINK-3521,1 51742U 22016AE  24038.81133324 -.00000953  00000-0 -41793-4 0  9999,2 51742  53.2172 135.0325 0001471  96.6866 263.4294 15.08830740108694,6917.909,95.438,540.791,538.756,0.0
51742.0,STARLINK-3521,PAYLOAD,2024-02-08 11:22:10,15.08837986,0.0001427,53.2171,132.0574,94.5365,265.579,2.5742e-06,-2.47e-06,0.0,0 STARLINK-3521,1 51742U 22016AE  24039.47373144 -.00000247  00000-0  25742-5 0  9990,2 51742  53.2171 132.0574 0001427  94.5365 265.5790 15.08837986108792,6917.887,95.438,540.739,538.764,0.0
51742.0,STARLINK-3521,PAYLOAD,2024-02-09 11:12:56,15.08839427,0.0001572,53.2167,127.598,97.3785,262.7386,0.00025415,3.759e-05,0.0,0 STARLINK-3521,1 51742U 22016AE  24040.46732468  .00003759  00000-0  25415-3 0  9994,2 51742  53.2167 127.5980 0001572  97.3785 262.7386 15.08839427110071,6917.882,95.438,540.835,538.66,0.0
51742.0,STARLINK-3521,PAYLOAD,2024-02-10 11:03:45,15.08825031,0.0001594,53.2171,123.1364,105.6216,254.4952,-8.9794e-05,-1.716e-05,0.0,0 STARLINK-3521,1 51742U 22016AE  24041.46094779 -.00001716  00000-0 -89794-4 0  9995,2 51742  53.2171 123.1364 0001594 105.6216 254.4952 15.08825031110220,6917.926,95.439,540.894,538.688,0.0
51742.0,STARLINK-3521,PAYLOAD,2024-02-10 15:49:55,15.08829408,0.0001428,53.2167,122.2416,96.298,263.8175,-3.8254e-05,-8.97e-06,0.0,0 STARLINK-3521,1 51742U 22016AE  24041.65966584 -.00000897  00000-0 -38254-4 0  9992,2 51742  53.2167 122.2416 0001428  96.2980 263.8175 15.08829408109122,6917.913,95.438,540.766,538.79,0.0
51742.0,STARLINK-3521,PAYLOAD,2024-02-11 04:32:59,15.08842376,0.0001423,53.2175,119.8687,49.5202,310.5914,7.5586e-05,9.15e-06,0.0,0 STARLINK-3521,1 51742U 22016AE  24042.18957475  .00000915  00000-0  75586-4 0  9998,2 51742  53.2175 119.8687 0001423  49.5202 310.5914 15.08842376110331,6917.873,95.437,540.723,538.754,0.0
51742.0,STARLINK-3521,PAYLOAD,2024-02-11 10:54:29,15.0890146,0.0002313,53.219,118.6791,85.5868,274.5388,-0.00054022,-8.891e-05,0.0,0 STARLINK-3521,1 51742U 22016AE  24042.45450922 -.00008891  00000-0 -54022-3 0  9997,2 51742  53.2190 118.6791 0002313  85.5868 274.5388 15.08901460110376,6917.693,95.434,541.158,537.957,0.0
51742.0,STARLINK-3521,PAYLOAD,2024-02-11 12:29:52,15.08873834,0.0001395,53.2169,118.3747,103.2054,256.9094,0.00020432,2.968e-05,0.0,0 STARLINK-3521,1 51742U 22016AE  24042.52074692  .00002968  00000-0  20432-3 0  9996,2 51742  53.2169 118.3747 0001395 103.2054 256.9094 15.08873834109250,6917.777,95.435,540.607,538.677,0.0
51742.0,STARLINK-3521,PAYLOAD,2024-02-12 04:23:45,15.08838202,0.0001242,53.2173,115.4024,102.2824,257.8307,0.00022029,3.22e-05,0.0,0 STARLINK-3521,1 51742U 22016AE  24043.18316697  .00003220  00000-0  22029-3 0  9999,2 51742  53.2173 115.4024 0001242 102.2824 257.8307 15.08838202110480,6917.886,95.438,540.61,538.892,0.0
51742.0,STARLINK-3521,PAYLOAD,2024-02-12 12:20:41,15.08850754,0.0001484,53.2166,113.9168,80.166,279.9499,0.00031002,4.651e-05,0.0,0 STARLINK-3521,1 51742U 22016AE  24043.51436386  .00004651  00000-0  31002-3 0  9994,2 51742  53.2166 113.9168 0001484  80.1660 279.9499 15.08850754109407,6917.848,95.437,540.739,538.686,0.0
